[{"OBJECT_ID":"1999-014B","OBJECT_NAME":"BLOCK DM-SL R/B","NORAD_CAT_ID":"25662","OBJECT_TYPE":"ROCKET BODY","PERIOD":"641.992","INCLINATION":"0.6642","APOGEE":"35972.294","PERIGEE":"574.803","ECCENTRICITY":"0.7179528","MEAN_MOTION":"2.24301859","TLE_LINE1":"1 25662U 99014B   16239.15632736 -.00000077  00000-0  40498-4 0  9992","TLE_LINE2":"2 25662   0.6642 178.8405 7179528 279.8127 128.7736  2.24301859142712","LAUNCH_DATE":"1999-03-28","LAUNCH_SITE":"SEA LAUNCH","OWNER":"SEA LAUNCH DEMO","ORBIT_TYPE":"Highly Elliptical Orbit","OPERATIONAL_STATUS":"N/A, derelict rocket body","satInfo":{"lng":178.96025286136225,"lat":-0.6189717051222062,"elevation":-12.91867315841633,"azimuth":136.03974713863772,"range":29838.194187462137,"height":22706.49893651755,"velocity":3.352467417415608},"x":2,"y":162,"dx":-3.3519154253253234,"dy":0.06083392391940638,"maxAlt":258,"minAlt":3},{"OBJECT_ID":"1999-042A","OBJECT_NAME":"TELKOM 1","NORAD_CAT_ID":"25880","OBJECT_TYPE":"PAYLOAD","PERIOD":"1436.087","INCLINATION":"0.0344","APOGEE":"35788.916","PERIGEE":"35783.924","ECCENTRICITY":"5.92e-05","MEAN_MOTION":"1.00272415","TLE_LINE1":"1 25880U 99042A   16238.89956262 -.00000372 +00000-0 +00000-0 0  9997","TLE_LINE2":"2 25880 000.0344 238.8519 0000592 317.1256 210.4353 01.00272415062461","LAUNCH_DATE":"1999-08-12","LAUNCH_SITE":"FRENCH GUIANA","OWNER":"INDONESIA","ORBIT_TYPE":"Geosynchronous","OPERATIONAL_STATUS":"Operational","satInfo":{"lng":49.16535147686413,"lat":-1.1575649951331632,"elevation":-9.700949915258727,"azimuth":265.83464852313585,"range":42777.57765824476,"height":35796.34845950098,"velocity":3.074413517506444},"x":194,"y":-170,"dx":2.01029216970196,"dy":2.326100571570656,"maxAlt":256,"minAlt":256},{"OBJECT_ID":"1999-046A","OBJECT_NAME":"ABS 7 (KOREASAT 3)","NORAD_CAT_ID":"25894","OBJECT_TYPE":"PAYLOAD","PERIOD":"1436.155","INCLINATION":"0.036","APOGEE":"35793.802","PERIGEE":"35781.700","ECCENTRICITY":"0.0001435","MEAN_MOTION":"1.00267666","TLE_LINE1":"1 25894U 99046A   16238.38141640  .00000000  00000-0  10000-3 0  9997","TLE_LINE2":"2 25894   0.0360 258.3095 0001435 238.3359  90.8363  1.00267666 61232","LAUNCH_DATE":"1999-09-04","LAUNCH_SITE":"FRENCH GUIANA","OWNER":"SOUTH KOREA","ORBIT_TYPE":"Geosynchronous","OPERATIONAL_STATUS":"Operational","satInfo":{"lng":57.59726133936164,"lat":-1.6727187518444282,"elevation":-10.200979087630259,"azimuth":257.40273866063836,"range":42840.775519096685,"height":35803.392996563176,"velocity":3.0742482998819156},"x":216,"y":-140,"dx":1.6473886812993768,"dy":2.595594949535376,"maxAlt":256,"minAlt":256},{"OBJECT_ID":"1999-056B","OBJECT_NAME":"BLOCK DM-SL R/B","NORAD_CAT_ID":"25938","OBJECT_TYPE":"ROCKET BODY","PERIOD":"678.723","INCLINATION":"0.5477","APOGEE":"35711.986","PERIGEE":"2698.216","ECCENTRICITY":"0.6452227","MEAN_MOTION":"2.12162942","TLE_LINE1":"1 25938U 99056B   16238.20033332 -.00000197 +00000-0 +00000-0 0  9990","TLE_LINE2":"2 25938 000.5477 038.7653 6452227 314.4463 354.9799 02.12162942130769","LAUNCH_DATE":"1999-10-10","LAUNCH_SITE":"SEA LAUNCH","OWNER":"SEA LAUNCH DEMO","ORBIT_TYPE":"Highly Elliptical Orbit","OPERATIONAL_STATUS":"N/A, derelict rocket body","satInfo":{"lng":-104.48973915680746,"lat":-0.6715601405823013,"elevation":-13.627919444876087,"azimuth":59.489739156807424,"range":28349.396579485852,"height":21175.008953021614,"velocity":3.654085123538466},"x":-149,"y":37,"dx":-0.9142762837077417,"dy":-3.537857680449383,"maxAlt":256,"minAlt":18},{"OBJECT_ID":"1999-059A","OBJECT_NAME":"TELSTAR 12 (ORION 2)","NORAD_CAT_ID":"25949","OBJECT_TYPE":"PAYLOAD","PERIOD":"1436.097","INCLINATION":"0.3162","APOGEE":"35797.304","PERIGEE":"35775.918","ECCENTRICITY":"0.0002536","MEAN_MOTION":"1.00271732","TLE_LINE1":"1 25949U 99059A   16239.57688127 -.00000091  00000-0  00000+0 0  9996","TLE_LINE2":"2 25949   0.3162  89.5421 0002536  67.5440 276.6211  1.00271732 61616","LAUNCH_DATE":"1999-10-19","LAUNCH_SITE":"FRENCH GUIANA","OWNER":"UNITED STATES OF AMERICA","ORBIT_TYPE":"Geosynchronous","OPERATIONAL_STATUS":"Operational","satInfo":{"lng":-105.158132415637,"lat":-1.803422866193086,"elevation":-10.330189985833812,"azimuth":60.15813241563699,"range":42844.60011527986,"height":35792.8485289002,"velocity":3.074136992932695},"x":-250,"y":66,"dx":-0.8038374680935314,"dy":-2.967181082476473,"maxAlt":256,"minAlt":256},{"OBJECT_ID":"1999-060A","OBJECT_NAME":"AMC-4 (GE-4)","NORAD_CAT_ID":"25954","OBJECT_TYPE":"PAYLOAD","PERIOD":"1436.198","INCLINATION":"0.0249","APOGEE":"35804.818","PERIGEE":"35772.349","ECCENTRICITY":"0.000385","MEAN_MOTION":"1.00264697","TLE_LINE1":"1 25954U 99060A   16238.44151374  .00000000  00000-0  10000-3 0  9992","TLE_LINE2":"2 25954   0.0249  26.0876 0003850  59.5157 340.4149  1.00264697 61455","LAUNCH_DATE":"1999-11-13","LAUNCH_SITE":"FRENCH GUIANA","OWNER":"SOCIÉTÉ EUROPÉENNE DES SATELLITES","ORBIT_TYPE":"Geosynchronous","OPERATIONAL_STATUS":"Operational","satInfo":{"lng":-85.01567974283522,"lat":0.6072000215562326,"elevation":-7.979239325434494,"azimuth":40.015679742835204,"range":42579.78224844522,"height":35791.77182250255,"velocity":3.0748677974663754},"x":-258,"y":-24,"dx":0.26715410082061714,"dy":-3.063240222103132,"maxAlt":256,"minAlt":256},{"OBJECT_ID":"2000-007A","OBJECT_NAME":"HISPASAT 1C","NORAD_CAT_ID":"26071","OBJECT_TYPE":"PAYLOAD","PERIOD":"1436.099","INCLINATION":"0.0334","APOGEE":"35796.187","PERIGEE":"35777.103","ECCENTRICITY":"0.0002263","MEAN_MOTION":"1.00271611","TLE_LINE1":"1 26071U 00007A   16238.65024102 -.00000239  00000-0  00000+0 0  9997","TLE_LINE2":"2 26071   0.0334  21.8718 0002263 158.8085 303.8955  1.00271611 60719","LAUNCH_DATE":"2000-02-03","LAUNCH_SITE":"AIR FORCE EASTERN TEST RANGE","OWNER":"SPAIN","ORBIT_TYPE":"Geosynchronous","OPERATIONAL_STATUS":"Operational","satInfo":{"lng":-100.31069810803345,"lat":0.3883076030915394,"elevation":-8.190491927134033,"azimuth":55.31069810803345,"range":42617.738382301155,"height":35805.86339249681,"velocity":3.0736556822521695},"x":-255,"y":45,"dx":-0.5501410908706977,"dy":-3.024021169432623,"maxAlt":256,"minAlt":256},{"OBJECT_ID":"2000-011A","OBJECT_NAME":"GARUDA 1","NORAD_CAT_ID":"26089","OBJECT_TYPE":"PAYLOAD","PERIOD":"1441.429","INCLINATION":"1.2856","APOGEE":"35912.374","PERIGEE":"35869.437","ECCENTRICITY":"0.0005079","MEAN_MOTION":"0.99900847","TLE_LINE1":"1 26089U 00011A   16238.86923847 -.00000105 +00000-0 +00000-0 0  9991","TLE_LINE2":"2 26089 001.2856 134.4562 0005079 050.4465 185.1813 00.99900847005861","LAUNCH_DATE":"2000-02-12","LAUNCH_SITE":"TYURATAM MISSILE AND SPACE COMPLEX","OWNER":"INDONESIA","ORBIT_TYPE":"Geosynchronous","OPERATIONAL_STATUS":"Nonoperational","satInfo":{"lng":30.06346487959412,"lat":2.2242798807516593,"elevation":-6.378037833572005,"azimuth":284.9365351204059,"range":42480.1875727905,"height":35870.92260203679,"velocity":3.0722247880956077},"x":128,"y":-225,"dx":2.658921573450011,"dy":1.5390585482142063,"maxAlt":257,"minAlt":257},{"OBJECT_ID":"2000-012A","OBJECT_NAME":"SUPERBIRD 4","NORAD_CAT_ID":"26095","OBJECT_TYPE":"PAYLOAD","PERIOD":"1436.128","INCLINATION":"0.0517","APOGEE":"35792.239","PERIGEE":"35782.195","ECCENTRICITY":"0.0001191","MEAN_MOTION":"1.00269571","TLE_LINE1":"1 26095U 00012A   16239.36228272 -.00000122  00000-0  00000+0 0  9993","TLE_LINE2":"2 26095   0.0517 267.5965 0001191 290.6437  69.1949  1.00269571 60511","LAUNCH_DATE":"2000-02-18","LAUNCH_SITE":"FRENCH GUIANA","OWNER":"JAPAN","ORBIT_TYPE":"Geosynchronous","OPERATIONAL_STATUS":"Operational","satInfo":{"lng":-56.25301555501136,"lat":-0.3031511327054688,"elevation":-8.864105657522328,"azimuth":11.253015555011347,"range":42702.83096093485,"height":35815.26670642068,"velocity":3.073504691341434},"x":-216,"y":-145,"dx":1.707413214384989,"dy":-2.5556156211451917,"maxAlt":256,"minAlt":256},{"OBJECT_ID":"2000-028A","OBJECT_NAME":"EUTE 36A (EUTE W4)","NORAD_CAT_ID":"26369","OBJECT_TYPE":"PAYLOAD","PERIOD":"1436.086","INCLINATION":"0.4028","APOGEE":"35804.435","PERIGEE":"35768.351","ECCENTRICITY":"0.0004279","MEAN_MOTION":"1.00272511","TLE_LINE1":"1 26369U 00028A   16239.01477921 -.00000244  00000-0  00000+0 0  9998","TLE_LINE2":"2 26369   0.4028  81.3753 0004279  88.5176 258.6168  1.00272511 59566","LAUNCH_DATE":"2000-05-24","LAUNCH_SITE":"AIR FORCE EASTERN TEST RANGE","OWNER":"EUROPEAN TELECOMMUNICATIONS SATELLITE ORGANIZATION (EUTELSAT)","ORBIT_TYPE":"Geosynchronous","OPERATIONAL_STATUS":"Operational","satInfo":{"lng":61.99280068661615,"lat":1.9842006142082629,"elevation":-6.634716725669559,"azimuth":253.00719931338384,"range":42404.32483118317,"height":35767.44792380695,"velocity":3.0760525099977585},"x":226,"y":-122,"dx":1.4444604368976441,"dy":2.7158116817078786,"maxAlt":256,"minAlt":256},{"OBJECT_ID":"2000-046B","OBJECT_NAME":"NILESAT 102","NORAD_CAT_ID":"26470","OBJECT_TYPE":"PAYLOAD","PERIOD":"1436.091","INCLINATION":"1.0652","APOGEE":"35810.118","PERIGEE":"35762.869","ECCENTRICITY":"0.0005603","MEAN_MOTION":"1.00272152","TLE_LINE1":"1 26470U 00046B   16239.13452203 -.00000086  00000-0  00000+0 0  9994","TLE_LINE2":"2 26470   1.0652  84.8581 0005603 104.8834 186.5051  1.00272152 58729","LAUNCH_DATE":"2000-08-17","LAUNCH_SITE":"FRENCH GUIANA","OWNER":"EGYPT","ORBIT_TYPE":"Geosynchronous","OPERATIONAL_STATUS":"Operational","satInfo":{"lng":64.53446681859316,"lat":2.529070811892923,"elevation":-6.0937166131574045,"azimuth":250.46553318140684,"range":42372.25945178374,"height":35795.73934264317,"velocity":3.0752324400017796},"x":231,"y":-112,"dx":1.3222517269624168,"dy":2.7764554616604613,"maxAlt":257,"minAlt":256}]